0 DMSP 5D-2 F15 DEB
1 25992U 99067B   22239.11045824  .00000768  00000-0  28090-3 0  9994
2 25992  98.2902 280.9123 0006677 185.4676 230.0604 14.35577133183665
0 DMSP 5D-2 F15 DEB
1 25993U 99067C   22240.00825524  .00001063  00000-0  37917-3 0  9995
2 25993  98.2443 238.9819 0003653 171.5484 253.0738 14.36125202183384
0 TERRA
1 25994U 99068A   22240.50665692  .00000163  00000-0  46020-4 0  9996
2 25994  98.1325 310.7583 0001508  84.5692 332.7585 14.57142515207113
0 DELTA 1 DEB
1 25997U 75052BA  22239.76652223  .00001410  00000-0  59059-3 0  9999
2 25997  99.9869 357.2742 0156723 325.0525  34.0439 14.21603384472727
0 SL-14 DEB
1 25998U 91068H   22240.33106216  .00000031  00000-0  13202-3 0  9994
2 25998  82.6798 317.8296 0035875 321.0445 107.4012 12.53598941 38438
0 SL-14 DEB
1 25999U 91068J   22240.08501257  .00000078  00000-0  37774-3 0  9992
2 25999  82.6930 260.3363 0058672 330.6474  84.3517 12.61608086 53264
0 SL-14 DEB
1 26000U 91068K   22239.30695333  .00000036  00000-0  18499-3 0  9995
2 26000  82.7172  73.0545 0044378 308.8030 115.7010 12.45158782 30741
0 SL-14 DEB
1 26001U 91068L   22240.20778417  .00000045  00000-0  17998-3 0  9995
2 26001  82.2244 217.7057 0091494   2.0402   7.3677 12.67764756 58483
0 SL-14 DEB
1 26002U 91068M   22239.93888716  .00000314  00000-0  12049-2 0  9998
2 26002  81.9673 233.9508 0142016 320.0589  65.5245 12.84678948 68634
0 SL-14 DEB
1 26003U 91068N   22239.66692414  .00002686  00000-0  14287-1 0  9996
2 26003  82.7102 318.4378 0120097 242.0714 272.6318 12.63649536 48675
0 SL-14 DEB
1 26004U 91068P   22239.26831663  .00001294  00000-0  59547-2 0  9997
2 26004  82.5670 161.2779 0156042   8.7734 115.3330 12.72450313 54825
0 SL-14 DEB
1 26005U 91068Q   22240.36832399  .00000008  00000-0 -15021-4 0  9992
2 26005  82.6045 192.6975 0061466  44.0919 111.2179 12.61465796 53231
0 SL-14 DEB
1 26006U 91068R   22239.33835181 -.00000001  00000-0 -63195-4 0  9999
2 26006  82.6118 183.8685 0096512  35.0883 119.7860 12.62516305 54216
0 SL-14 DEB
1 26007U 91068S   22239.45177264 -.00000005  00000-0 -10000-3 0  9994
2 26007  82.7009  23.6935 0011812  18.4891  48.5756 12.48344216 42539
0 SL-14 DEB
1 26008U 91068T   22239.90086869  .00000004  00000-0 -37542-4 0  9994
2 26008  82.6308 191.0181 0091814 355.2532  59.3439 12.63099146 54883
0 SL-14 DEB
1 26009U 91068U   22239.69663493  .00000316  00000-0  13004-2 0  9995
2 26009  82.4913 308.0411 0124601 230.3068 300.2363 12.80051561 66805
0 SL-14 DEB
1 26010U 91068V   22240.02255270  .00000062  00000-0  36852-3 0  9991
2 26010  82.7307  88.2563 0051886 330.5549 183.1732 12.44496673 31158
0 SL-14 DEB
1 26011U 91068W   22240.03961542  .00000056  00000-0  25465-3 0  9990
2 26011  82.4198  70.4342 0055301 149.7974 334.5004 12.60888551 52683
0 SL-14 DEB
1 26012U 91068X   22239.89302182  .00000046  00000-0  24398-3 0  9995
2 26012  82.7313  63.9242 0036958 286.8053 141.9699 12.46827211 41004
0 SL-14 DEB
1 26013U 91068Y   22239.24476005  .00000076  00000-0  40445-3 0  9995
2 26013  82.7187 332.1525 0023652 230.1530 157.9444 12.55324597 47727
0 SL-14 DEB
1 26014U 91068Z   22240.32039616  .00000035  00000-0  17421-3 0  9993
2 26014  82.7385  91.0174 0044395 336.6318 201.0190 12.44463550 39116
0 SL-14 DEB
1 26015U 91068AA  22240.12142432  .00000051  00000-0  22002-3 0  9992
2 26015  82.4760  94.5994 0069052  70.0784  56.2066 12.62204037422483
0 SL-14 DEB
1 26016U 91068AB  22239.76351527  .00000139  00000-0  47365-3 0  9994
2 26016  81.9114 160.6105 0236010 224.5993 163.2155 12.84824650442650
0 SL-14 DEB
1 26017U 91068AC  22240.51022869  .00000015  00000-0  35433-4 0  9991
2 26017  82.6882  66.7235 0060343  23.3307   4.7212 12.43286137407313
0 SL-14 DEB
1 26018U 91068AD  22239.48642736  .00000015  00000-0  30489-4 0  9993
2 26018  82.7111  63.6100 0018485 342.8045  44.8648 12.45353202409089
0 SL-14 DEB
1 26019U 91068AE  22240.39558466  .00000185  00000-0  11878-2 0  9999
2 26019  82.6483 100.0561 0283103  30.5096 140.4637 12.36704555402496
0 SL-14 DEB
1 26020U 91068AF  22240.46466860  .00001776  00000-0  90334-2 0  9996
2 26020  82.7311 303.8122 0065767 183.4906 189.8691 12.68254620420582
0 SL-14 DEB
1 26021U 91068AG  22239.80858505  .00000132  00000-0  39491-3 0  9997
2 26021  81.7789   6.4351 0227043 120.3036  32.2668 12.92547155446894
0 SL-14 DEB
1 26022U 91068AH  22239.31078275  .00000092  00000-0  44933-3 0  9994
2 26022  82.4564  90.1163 0079153  55.6372 356.4382 12.61775784422676
0 SL-14 DEB
1 26023U 91068AJ  22239.56077181 -.00000013  00000-0 -15447-3 0  9990
2 26023  82.5748 282.5882 0014098 128.3323  25.3993 12.50876030413346
0 SL-14 DEB
1 26024U 91068AK  22239.77367475  .00000115  00000-0  74198-3 0  9991
2 26024  82.7038 170.8376 0271617 129.2083 261.0986 12.33777546401164
0 SL-14 DEB
1 26025U 91068AL  22240.25492287  .00000243  00000-0  16381-2 0  9998
2 26025  82.7316 178.0186 0263257  77.0820  74.4239 12.35099992406721
0 SL-14 DEB
1 26026U 91068AM  22240.16049362  .00000209  00000-0  10710-2 0  9993
2 26026  82.5098 110.0732 0095320  53.5934  75.0310 12.63262975 61615
0 SL-14 DEB
1 26027U 91068AN  22240.40065795  .00000158  00000-0  11645-2 0  9990
2 26027  83.2883 207.7776 0103843 202.4030 321.5173 12.34527246 43248
0 SL-14 DEB
1 26028U 91068AP  22239.50800907  .00000034  00000-0  16728-3 0  9993
2 26028  82.6962  50.6581 0021190 342.8145  74.1245 12.45714201 60958
0 SL-14 DEB
1 26029U 91068AQ  22239.92937449  .00000025  00000-0  91201-4 0  9992
2 26029  82.5698 219.7846 0037651 250.1175 139.5209 12.56299506 69019
0 SL-14 DEB
1 26030U 91068AU  22237.16024880  .00000079  00000-0  35834-3 0  9992
2 26030  82.6787 201.9213 0077323 230.3660 144.3163 12.66728824416325
0 KOMPSAT
1 26032U 99070A   22240.30507701  .00000325  00000-0  62580-4 0  9996
2 26032  98.1273  13.3963 0005287  15.8166 344.3181 14.69894211214645
0 ACRIMSAT
1 26033U 99070B   22239.97352180  .00000186  00000-0  45839-4 0  9990
2 26033  98.1684   1.2255 0028621 140.7016 219.6270 14.62629063209619
0 CELESTIS 03/TAURUS R/B
1 26034U 99070C   22239.87427921  .00010836  00000-0  49477-3 0  9990
2 26034  98.3114 253.0467 0008136 235.6123 124.4341 15.20779474231922
0 TAURUS DEB
1 26035U 99070D   22239.95383439  .00000147  00000-0  38762-4 0  9995
2 26035  98.1989   1.8615 0026899 164.2999 309.5781 14.62084275209246
0 DELTA 1 DEB
1 26036U 75052KA  22240.35788840  .00001390  00000-0  44490-3 0  9996
2 26036  99.9593 180.2303 0117939 177.1759 183.0114 14.37706446232396
0 SL-12 DEB
1 26037U 87079W   22239.26631102  .00000349  00000-0  70351-3 0  9993
2 26037  64.8221 254.6509 5483304 137.4268 281.5456  4.62015490399702
0 GALAXY 11
1 26038U 99071A   22240.12341062 -.00000164  00000-0  00000+0 0  9995
2 26038   3.1827  86.8247 0000266 244.4741 316.3629  1.00271487 83143
0 COSMOS 2368
1 26042U 99073A   22238.97428764 -.00000667  00000-0  00000-0 0  9996
2 26042  67.5922  36.9051 6317041 191.2997 142.2603  2.00693304166043
0 SL-6 R/B(2)
1 26045U 99073D   22239.68979516  .00000079  00000-0  00000-0 0  9990
2 26045  64.5042 319.1393 6846618 193.7381 128.7117  2.04166638168727
0 TITAN 3C TRANSTAGE DEB
1 26048U 65108AG  22240.40471551  .00000238  00000-0  39958-3 0  9997
2 26048  26.4212 244.1613 6323059 131.9377 302.6209  3.50082928283809
0 TITAN 3C TRANSTAGE DEB
1 26049U 65108AH  22239.56668505 -.00000477  00000-0 -67656-3 0  9993
2 26049  27.2047  13.8181 4842279  53.0447 342.2394  5.63088733 30953
0 TITAN 3C TRANSTAGE DEB
1 26050U 65108AJ  22239.30502654 -.00000205  00000-0 -58089-2 0  9997
2 26050  26.5481  46.1799 6624488  87.9506 340.9703  2.69839099228698
0 USA 148
1 26052U 00001A   22239.71685417  .00000040  00000-0  00000-0 0  9997
2 26052   9.6473  41.9648 0001420 143.8023 228.4047  1.00274464 19034
0 ATLAS 2A CENTAUR R/B
1 26053U 00001B   22240.02851484  .00011429  00000-0  18993-2 0  9998
2 26053  25.9417 194.9935 6019717 352.2569   1.4446  4.02207175266976
0 IABS R/B
1 26054U 00001C   22238.40335912 -.00000195  00000-0  00000-0 0  9998
2 26054  13.8692  10.1559 0014404 305.8485  54.0776  1.01184137 12014
0 GALAXY 10R
1 26056U 00002A   22240.25535775 -.00000257  00000-0  00000+0 0  9994
2 26056   9.9738  40.6643 0007944 100.3678 261.3953  0.99645678 82484
0 CHINASAT 22
1 26058U 00003A   22239.91506059 -.00000065  00000-0  00000+0 0  9998
2 26058  10.1568  41.2148 0002417 348.7052  10.5936  0.97321027 81742
0 JAWSAT
1 26061U 00004A   22240.43180984  .00000211  00000-0  82456-4 0  9999
2 26061 100.1981 311.7967 0033077 228.5055 131.3288 14.41733212186715
0 OPAL
1 26063U 00004C   22239.89312241  .00000029  00000-0  29777-4 0  9996
2 26063 100.2284 258.7793 0036391 358.5009   1.6057 14.36886673183697
0 FALCONSAT
1 26064U 00004D   22239.98055566  .00000026  00000-0  29021-4 0  9990
2 26064 100.2306 252.9641 0037879  17.0391 343.2052 14.36323926183512
0 ASUSAT
1 26065U 00004E   22239.80255825  .00000041  00000-0  33606-4 0  9993
2 26065 100.2293 261.5950 0036636 358.2304   1.8742 14.37044006183930
0 MINOTAUR R/B
1 26066U 00004F   22240.10640511  .00000030  00000-0  29723-4 0  9992
2 26066 100.2254 276.0453 0032699 326.9479  32.9659 14.37825472184642
0 COSMOS 2369
1 26069U 00006A   22240.54792807  .00000091  00000-0  73451-4 0  9995
2 26069  70.9962 341.9912 0012946 237.6413 122.3456 14.13477014164359
0 SL-16 R/B
1 26070U 00006B   22240.46971796  .00000094  00000-0  72350-4 0  9994
2 26070  71.0009 287.8751 0017350 336.9433  23.0909 14.15492880166085
0 HISPASAT 1C
1 26071U 00007A   22239.87928538 -.00000156  00000-0  00000+0 0  9993
2 26071   4.9331  77.9652 0004070  96.8300 225.0617  0.99202098 82508
0 ATLAS 2AS CENTAUR R/B
1 26072U 00007B   22239.87694579  .00037347  00000-0  16008-2 0  9998
2 26072  18.1040 324.4952 3849364 213.3756 115.1025  7.74690323478719
0 SL-16 DEB
1 26073U 00006C   22239.87606775  .00000043  00000-0  78637-4 0  9990
2 26073  71.0763  65.3012 0193534 145.6154 281.8778 13.74139400131538
0 SL-16 DEB
1 26074U 00006D   22239.92306987  .00000038  00000-0  78119-4 0  9998
2 26074  70.9618  91.6647 0214281  44.1623  52.3649 13.69588884168580
